[{"OBJECT_NAME":"TEIKYOSAT-4 (OORURI)","OBJECT_ID":"2021-102B","EPOCH":"2026-03-09T16:12:29.535840","MEAN_MOTION":15.09119208,"ECCENTRICITY":0.00103447,"INCLINATION":97.3797,"RA_OF_ASC_NODE":101.9931,"ARG_OF_PERICENTER":276.5421,"MEAN_ANOMALY":83.463,"EPHEMERIS_TYPE":0,"CLASSIFICATION_TYPE":"U","NORAD_CAT_ID":49396,"ELEMENT_SET_NO":999,"REV_AT_EPOCH":23771,"BSTAR":0.00015739844,"MEAN_MOTION_DOT":2.438e-5,"MEAN_MOTION_DDOT":0},{"OBJECT_NAME":"STARLINK-34949","OBJECT_ID":"2025-175B","EPOCH":"2026-03-09T14:35:25.702368","MEAN_MOTION":15.05649669,"ECCENTRICITY":0.0002154,"INCLINATION":97.6024,"RA_OF_ASC_NODE":302.5064,"ARG_OF_PERICENTER":75.6789,"MEAN_ANOMALY":284.4677,"EPHEMERIS_TYPE":0,"CLASSIFICATION_TYPE":"U","NORAD_CAT_ID":65175,"ELEMENT_SET_NO":999,"REV_AT_EPOCH":3263,"BSTAR":0.00018362,"MEAN_MOTION_DOT":2.59e-5,"MEAN_MOTION_DDOT":0}]
