TEIKYOSAT-4 (OORURI)    
1 49396U 21102B   26068.67534185  .00002438  00000+0  15740-3 0  9994
2 49396  97.3797 101.9931 0010345 276.5421  83.4630 15.09119208237719
STARLINK-34949          
1 65175U 25175B   26068.60793637  .00002590  00000+0  18362-3 0  9995
2 65175  97.6024 302.5064 0002154  75.6789 284.4677 15.05649669 32631
